{
    "links": {
        "self": "http://www.neowsapp.com/rest/v1/neo/3698573?api_key=iIulBulltgU6a56xZRHN4H3l9WmuAYTsLGpBGhQ2"
    },
    "id": "3698573",
    "neo_reference_id": "3698573",
    "name": "(2014 WO201)",
    "designation": "2014 WO201",
    "nasa_jpl_url": "http://ssd.jpl.nasa.gov/sbdb.cgi?sstr=3698573",
    "absolute_magnitude_h": 25.9,
    "estimated_diameter": {
        "kilometers": {
            "estimated_diameter_min": 0.0175612318,
            "estimated_diameter_max": 0.0392681082
        },
        "meters": {
            "estimated_diameter_min": 17.561231848,
            "estimated_diameter_max": 39.2681081809
        },
        "miles": {
            "estimated_diameter_min": 0.0109120402,
            "estimated_diameter_max": 0.0244000636
        },
        "feet": {
            "estimated_diameter_min": 57.6155918963,
            "estimated_diameter_max": 128.8323800441
        }
    },
    "is_potentially_hazardous_asteroid": false,
    "close_approach_data": [
        {
            "close_approach_date": "2014-11-09",
            "close_approach_date_full": "2014-Nov-09 11:28",
            "epoch_date_close_approach": 1415532480000,
            "relative_velocity": {
                "kilometers_per_second": "6.6550279679",
                "kilometers_per_hour": "23958.1006845116",
                "miles_per_hour": "14886.63206144"
            },
            "miss_distance": {
                "astronomical": "0.0377815831",
                "lunar": "14.6970358259",
                "kilometers": "5652044.356987997",
                "miles": "3512017.5090164786"
            },
            "orbiting_body": "Earth"
        }
    ],
    "orbital_data": {
        "orbit_id": "4",
        "orbit_determination_date": "2019-07-17 06:10:21",
        "first_observation_date": "2014-11-19",
        "last_observation_date": "2014-11-25",
        "data_arc_in_days": 6,
        "observations_used": 15,
        "orbit_uncertainty": "8",
        "minimum_orbit_intersection": ".0325707",
        "jupiter_tisserand_invariant": "4.743",
        "epoch_osculation": "2456983.5",
        "eccentricity": ".2810375938272993",
        "semi_major_axis": "1.383119445633439",
        "inclination": "7.530224557132819",
        "ascending_node_longitude": "233.4102822658486",
        "orbital_period": "594.1388587896047",
        "perihelion_distance": ".9944108846568691",
        "perihelion_argument": "145.3381208525408",
        "aphelion_distance": "1.771828006610008",
        "perihelion_time": "2456946.642324435628",
        "mean_anomaly": "22.33276448237268",
        "mean_motion": ".605918960987338",
        "equinox": "J2000",
        "orbit_class": {
            "orbit_class_type": "APO",
            "orbit_class_description": "Near-Earth asteroid orbits which cross the Earth’s orbit similar to that of 1862 Apollo",
            "orbit_class_range": "a (semi-major axis) > 1.0 AU; q (perihelion) < 1.017 AU"
        }
    },
    "is_sentry_object": false
}